NORAD_CAT_ID,OBJECT_NAME,OBJECT_TYPE,EPOCH,MEAN_MOTION,ECCENTRICITY,INCLINATION,RA_OF_ASC_NODE,ARG_OF_PERICENTER,MEAN_ANOMALY,BSTAR,MEAN_MOTION_DOT,MEAN_MOTION_DDOT,TLE_LINE0,TLE_LINE1,TLE_LINE2,SEMIMAJOR_AXIS,PERIOD,APOGEE,PERIGEE,DECAYED
53639.0,STARLINK-4422,PAYLOAD,2023-09-09 00:04:44,15.08836062,0.0001215,53.2178,1.1133,94.8302,265.2829,2.6768e-05,1.38e-06,0.0,0 STARLINK-4422,1 53639U 22104BD  23252.00329605  .00000138  00000-0  26768-4 0  9999,2 53639  53.2178   1.1133 0001215  94.8302 265.2829 15.08836062 57429,6917.892,95.438,540.598,538.917,0.0
53639.0,STARLINK-4422,PAYLOAD,2023-09-09 14:23:13,15.08838796,0.0001155,53.2176,358.4401,95.3406,264.7718,7.9439e-05,9.77e-06,0.0,0 STARLINK-4422,1 53639U 22104BD  23252.59945702  .00000977  00000-0  79439-4 0  9999,2 53639  53.2176 358.4401 0001155  95.3406 264.7718 15.08838796 58368,6917.884,95.438,540.548,538.95,0.0
53639.0,STARLINK-4422,PAYLOAD,2023-09-10 07:52:27,15.08834684,0.0001589,53.2183,355.1693,119.308,240.8071,0.00016217,2.294e-05,0.0,0 STARLINK-4422,1 53639U 22104BD  23253.32809692  .00002294  00000-0  16217-3 0  9996,2 53639  53.2183 355.1693 0001589 119.3080 240.8071 15.08834684 57626,6917.897,95.438,540.861,538.662,0.0
53639.0,STARLINK-4422,PAYLOAD,2023-09-10 12:38:36,15.08840918,0.0001456,53.2185,354.2774,113.0921,247.0224,0.00017645,2.521e-05,0.0,0 STARLINK-4422,1 53639U 22104BD  23253.52681394  .00002521  00000-0  17645-3 0  9994,2 53639  53.2185 354.2774 0001456 113.0921 247.0224 15.08840918 58500,6917.878,95.437,540.75,538.735,0.0
53639.0,STARLINK-4422,PAYLOAD,2023-09-10 14:14:00,15.08811042,0.0001626,53.2195,353.981,105.1417,254.9755,0.000709,0.00011005,0.0,0 STARLINK-4422,1 53639U 22104BD  23253.59306160  .00011005  00000-0  70900-3 0  9996,2 53639  53.2195 353.9810 0001626 105.1417 254.9755 15.08811042 57667,6917.969,95.439,540.959,538.709,0.0
53639.0,STARLINK-4422,PAYLOAD,2023-09-11 10:54:01,15.08831944,0.0001125,53.2186,350.1144,95.6202,264.4919,0.00014417,2.007e-05,0.0,0 STARLINK-4422,1 53639U 22104BD  23254.45418215  .00002007  00000-0  14417-3 0  9990,2 53639  53.2186 350.1144 0001125  95.6202 264.4919 15.08831944 57790,6917.905,95.438,540.548,538.992,0.0
53639.0,STARLINK-4422,PAYLOAD,2023-09-11 14:04:47,15.08841714,0.0001289,53.2187,349.5184,87.2902,272.8238,6.7802e-05,7.91e-06,0.0,0 STARLINK-4422,1 53639U 22104BD  23254.58665746  .00000791  00000-0  67802-4 0  9992,2 53639  53.2187 349.5184 0001289  87.2902 272.8238 15.08841714 58662,6917.875,95.437,540.632,538.848,0.0
53639.0,STARLINK-4422,PAYLOAD,2023-09-12 12:20:10,15.0884725,0.0001355,53.2186,345.3559,86.9682,273.1465,5.3616e-05,5.66e-06,0.0,0 STARLINK-4422,1 53639U 22104BD  23255.51401410  .00000566  00000-0  53616-4 0  9990,2 53639  53.2186 345.3559 0001355  86.9682 273.1465 15.08847250 58809,6917.858,95.437,540.661,538.786,0.0
53639.0,STARLINK-4422,PAYLOAD,2023-09-12 13:55:33,15.088507,0.0001334,53.2188,345.0586,85.9753,274.1391,6.7614e-05,7.89e-06,0.0,0 STARLINK-4422,1 53639U 22104BD  23255.58025136  .00000789  00000-0  67614-4 0  9994,2 53639  53.2188 345.0586 0001334  85.9753 274.1391 15.08850700 58817,6917.848,95.437,540.636,538.79,0.0
53639.0,STARLINK-4422,PAYLOAD,2023-09-12 23:27:52,15.08853359,0.0001366,53.2187,343.2759,81.6108,278.5039,5.2396e-05,5.46e-06,0.0,0 STARLINK-4422,1 53639U 22104BD  23255.97768791  .00000546  00000-0  52396-4 0  9990,2 53639  53.2187 343.2759 0001366  81.6108 278.5039 15.08853359 58023,6917.84,95.437,540.65,538.76,0.0
53639.0,STARLINK-4422,PAYLOAD,2023-09-13 12:10:57,15.08855992,0.0001614,53.2178,340.8978,74.834,285.2831,0.00013706,1.895e-05,0.0,0 STARLINK-4422,1 53639U 22104BD  23256.50760723  .00001895  00000-0  13706-3 0  9996,2 53639  53.2178 340.8978 0001614  74.8340 285.2831 15.08855992 58959,6917.832,95.437,540.813,538.58,0.0
53639.0,STARLINK-4422,PAYLOAD,2023-09-13 16:57:06,15.08865665,0.0001406,53.2179,340.0028,84.7175,275.3978,0.00038527,5.853e-05,0.0,0 STARLINK-4422,1 53639U 22104BD  23256.70631983  .00005853  00000-0  38527-3 0  9999,2 53639  53.2179 340.0028 0001406  84.7175 275.3978 15.08865665 58986,6917.802,95.436,540.64,538.694,0.0
53639.0,STARLINK-4422,PAYLOAD,2023-09-13 23:18:40,15.08825198,0.0001277,53.2182,338.8162,80.9297,279.184,-0.00019502,-3.389e-05,0.0,0 STARLINK-4422,1 53639U 22104BD  23256.97130036 -.00003389  00000-0 -19502-3 0  9997,2 53639  53.2182 338.8162 0001277  80.9297 279.1840 15.08825198 58171,6917.926,95.438,540.674,538.907,0.0
53639.0,STARLINK-4422,PAYLOAD,2023-09-14 12:01:46,15.08817988,0.0001434,53.2175,336.4351,103.5473,256.5679,-0.0002934,-4.951e-05,0.0,0 STARLINK-4422,1 53639U 22104BD  23257.50122971 -.00004951  00000-0 -29340-3 0  9993,2 53639  53.2175 336.4351 0001434 103.5473 256.5679 15.08817988 59101,6917.948,95.439,540.805,538.821,0.0
53639.0,STARLINK-4422,PAYLOAD,2023-09-15 10:17:09,15.08840427,0.0001511,53.2176,332.2715,112.4788,247.6365,0.00015007,2.101e-05,0.0,0 STARLINK-4422,1 53639U 22104BD  23258.42858642  .00002101  00000-0  15007-3 0  9994,2 53639  53.2176 332.2715 0001511 112.4788 247.6365 15.08840427 58391,6917.879,95.438,540.789,538.699,0.0
53639.0,STARLINK-4422,PAYLOAD,2023-09-15 11:52:33,15.08839224,0.0001528,53.2178,331.974,116.9826,243.1322,0.00028193,4.202e-05,0.0,0 STARLINK-4422,1 53639U 22104BD  23258.49482840  .00004202  00000-0  28193-3 0  9998,2 53639  53.2178 331.9740 0001528 116.9826 243.1322 15.08839224 59250,6917.883,95.438,540.805,538.691,0.0
53639.0,STARLINK-4422,PAYLOAD,2023-09-16 11:43:20,15.08856601,0.0001386,53.2181,327.5161,102.5272,257.5875,0.00051526,7.926e-05,0.0,0 STARLINK-4422,1 53639U 22104BD  23259.48842817  .00007926  00000-0  51526-3 0  9994,2 53639  53.2181 327.5161 0001386 102.5272 257.5875 15.08856601 59407,6917.83,95.437,540.653,538.736,0.0
53639.0,STARLINK-4422,PAYLOAD,2023-09-17 09:58:43,15.08850212,0.0001433,53.2179,323.3524,103.8092,256.306,0.00014007,1.943e-05,0.0,0 STARLINK-4422,1 53639U 22104BD  23260.41578472  .00001943  00000-0  14007-3 0  9998,2 53639  53.2179 323.3524 0001433 103.8092 256.3060 15.08850212 58693,6917.849,95.437,540.706,538.723,0.0
53639.0,STARLINK-4422,PAYLOAD,2023-09-18 09:49:30,15.08848084,0.000144,53.218,318.8917,93.5332,266.5825,6.1208e-05,6.87e-06,0.0,0 STARLINK-4422,1 53639U 22104BD  23261.40938215  .00000687  00000-0  61208-4 0  9993,2 53639  53.2180 318.8917 0001440  93.5332 266.5825 15.08848084 58843,6917.856,95.437,540.717,538.725,0.0
53639.0,STARLINK-4422,PAYLOAD,2023-09-18 11:24:53,15.0884834,0.0001401,53.2178,318.5944,92.2123,267.903,5.991e-05,6.66e-06,0.0,0 STARLINK-4422,1 53639U 22104BD  23261.47562151  .00000666  00000-0  59910-4 0  9996,2 53639  53.2178 318.5944 0001401  92.2123 267.9030 15.08848340 59702,6917.855,95.437,540.689,538.751,0.0
53639.0,STARLINK-4422,PAYLOAD,2023-09-18 20:57:12,15.08847593,0.0001409,53.2179,316.8102,90.4253,269.69,7.7311e-05,9.43e-06,0.0,0 STARLINK-4422,1 53639U 22104BD  23261.87306079  .00000943  00000-0  77311-4 0  9998,2 53639  53.2179 316.8102 0001409  90.4253 269.6900 15.08847593 59762,6917.857,95.437,540.697,538.747,0.0
53639.0,STARLINK-4422,PAYLOAD,2023-09-19 11:15:39,15.08858116,0.0001453,53.2174,314.1327,90.1992,269.9167,0.00024779,3.66e-05,0.0,0 STARLINK-4422,1 53639U 22104BD  23262.46921285  .00003660  00000-0  24779-3 0  9994,2 53639  53.2174 314.1327 0001453  90.1992 269.9167 15.08858116 59001,6917.825,95.436,540.695,538.685,0.0
53639.0,STARLINK-4422,PAYLOAD,2023-09-20 03:09:31,15.08849131,0.0001537,53.2181,311.16,87.681,272.4358,0.00013918,1.928e-05,0.0,0 STARLINK-4422,1 53639U 22104BD  23263.13161512  .00001928  00000-0  13918-3 0  9996,2 53639  53.2181 311.1600 0001537  87.6810 272.4358 15.08849131 59102,6917.852,95.437,540.781,538.654,0.0
53639.0,STARLINK-4422,PAYLOAD,2023-09-20 09:31:03,15.08849492,0.0001507,53.2174,309.9692,87.0907,273.0257,7.6106e-05,9.24e-06,0.0,0 STARLINK-4422,1 53639U 22104BD  23263.39657366  .00000924  00000-0  76106-4 0  9995,2 53639  53.2174 309.9692 0001507  87.0907 273.0257 15.08849492 59990,6917.851,95.437,540.759,538.674,0.0
53639.0,STARLINK-4422,PAYLOAD,2023-09-21 03:00:19,15.08834244,0.0001607,53.2171,306.6992,88.0036,272.1141,-0.00010441,-1.949e-05,0.0,0 STARLINK-4422,1 53639U 22104BD  23264.12522219 -.00001949  00000-0 -10441-3 0  9994,2 53639  53.2171 306.6992 0001607  88.0036 272.1141 15.08834244 59259,6917.898,95.438,540.875,538.651,0.0
53639.0,STARLINK-4422,PAYLOAD,2023-09-21 09:21:52,15.08835027,0.0001485,53.2174,305.509,87.4282,272.688,-0.00014153,-2.539e-05,0.0,0 STARLINK-4422,1 53639U 22104BD  23264.39018949 -.00002539  00000-0 -14153-3 0  9993,2 53639  53.2174 305.5090 0001485  87.4282 272.6880 15.08835027 60144,6917.896,95.438,540.788,538.733,0.0
53639.0,STARLINK-4422,PAYLOAD,2023-09-22 09:12:38,15.08841976,0.0001404,53.2164,301.0481,78.0715,282.0434,7.6504e-05,9.3e-06,0.0,0 STARLINK-4422,1 53639U 22104BD  23265.38378254  .00000930  00000-0  76504-4 0  9991,2 53639  53.2164 301.0481 0001404  78.0715 282.0434 15.08841976 59447,6917.874,95.437,540.711,538.768,0.0
53639.0,STARLINK-4422,PAYLOAD,2023-09-23 02:41:53,15.08832397,0.0001461,53.217,297.7776,93.4887,266.6272,0.00015984,2.256e-05,0.0,0 STARLINK-4422,1 53639U 22104BD  23266.11242908  .00002256  00000-0  15984-3 0  9996,2 53639  53.2170 297.7776 0001461  93.4887 266.6272 15.08832397 59553,6917.904,95.438,540.779,538.758,0.0
53639.0,STARLINK-4422,PAYLOAD,2023-09-23 09:03:26,15.08833297,0.0001485,53.2176,296.589,98.2498,261.8663,0.00017798,2.545e-05,0.0,0 STARLINK-4422,1 53639U 22104BD  23266.37738982  .00002545  00000-0  17798-3 0  9992,2 53639  53.2176 296.5890 0001485  98.2498 261.8663 15.08833297 60441,6917.901,95.438,540.793,538.739,0.0
53639.0,STARLINK-4422,PAYLOAD,2023-09-24 07:18:50,15.08837153,0.0001532,53.2176,292.4254,99.2916,260.8249,1.359e-05,-7.2e-07,0.0,0 STARLINK-4422,1 53639U 22104BD  23267.30475421 -.00000072  00000-0  13590-4 0  9993,2 53639  53.2176 292.4254 0001532  99.2916 260.8249 15.08837153 59733,6917.889,95.438,540.814,538.694,0.0
